STARLINK-2748
1 28694C 21044BJ  21325.19219139  .00005493  00000-0  36796-3 0  3258
2 28694  53.0528 292.3609 0001704  66.3126 267.8013 15.06400966    18
